{"type":"FeatureCollection","features":[{"type":"Feature","id":"lpQ5eSePcQa","geometry":{"type":"Polygon","coordinates":[[[46.911,9.431],[46.9206,8.8433],[46.921,8.7826],[46.191,8.821],[46.221,9.001],[46.151,9.441],[46.0494,10.0504],[46.3139,9.8401],[46.5941,9.6173],[46.841,9.421],[46.911,9.431]]]},"properties":{"code":"11501","name":"Ainabo District","level":"3","parent":"CubyBZrSky9","parentGraph":"d2FE2xzZNoV/CubyBZrSky9","groups":[]}},{"type":"Feature","id":"Fcc3l19zidt","geometry":{"type":"Polygon","coordinates":[[[44.2363,10.4734],[44.15,10.32],[44.04,10.17],[43.82,10.29],[43.76,10.3],[43.72,10.26],[43.53,9.99],[43.37,9.8],[43.31,9.69],[43.2896,9.6575],[43.2569,9.8426],[43.1499,9.8994],[43.1153,9.8888],[43.0859,9.9088],[43.0174,10.0808],[42.8811,10.2071],[42.8583,10.2341],[42.8326,10.2779],[42.8048,10.3518],[42.7919,10.4041],[42.7631,10.4567],[42.7467,10.5123],[42.6984,10.5462],[42.6832,10.5925],[42.693,10.6252],[42.7226,10.6512],[42.7665,10.722],[42.9859,11.0219],[43,11.0549],[43.2547,11.4696],[43.3151,11.465],[43.3312,11.4263],[43.3543,11.4137],[43.3909,11.3798],[43.4276,11.3789],[43.4795,11.329],[43.4934,11.2902],[43.4961,11.2436],[43.5161,11.1997],[43.556,11.1789],[43.565,11.1471],[43.5986,11.0823],[43.6922,10.9408],[43.7303,10.9025],[43.7891,10.8354],[43.8571,10.7674],[43.9567,10.6813],[43.995,10.6621],[44.0644,10.6087],[44.0819,10.5849],[44.1175,10.558],[44.1486,10.5476],[44.2017,10.5077],[44.2363,10.4734]]]},"properties":{"code":"11100","name":"Awdal Region","level":"2","parent":"d2FE2xzZNoV","parentGraph":"d2FE2xzZNoV","groups":[]}},{"type":"Feature","id":"IoPGwUKyUIU","geometry":{"type":"Polygon","coordinates":[[[47.9098,11.121],[47.9728,11.1133],[48.0256,11.1158],[48.0938,11.1295],[48.1545,11.13],[48.1863,11.1534],[48.2427,11.2053],[48.2892,11.2143],[48.3182,11.2309],[48.3611,11.2706],[48.4051,11.2816],[48.4631,11.2811],[48.5185,11.3066],[48.5443,11.3113],[48.6051,11.3078],[48.6631,11.3234],[48.703,11.3083],[48.7748,11.2915],[48.8807,11.2473],[48.9189,11.2398],[49.0311,10.7809],[49.0411,10.3509],[49.0611,9.571],[48.5795,9.5421],[48.611,10.5209],[48.581,10.5309],[48.481,10.6209],[48.431,10.6509],[48.381,10.7209],[47.981,11.0408],[47.9098,11.121]]]},"properties":{"code":"11401","name":"Badhan District","level":"3","parent":"JF9IIRF7Qzx","parentGraph":"d2FE2xzZNoV/JF9IIRF7Qzx","groups":[]}},{"type":"Feature","id":"GjVGd6zxFIx","geometry":{"type":"Polygon","coordinates":[[[44.0737,10.5983],[44.097,10.5728],[44.1496,10.5485],[44.2026,10.5086],[44.2373,10.4743],[44.151,10.3209],[44.041,10.1709],[43.8209,10.2909],[43.7609,10.3009],[43.721,10.2609],[43.5309,9.9909],[43.3709,9.801],[43.3309,9.841],[43.3509,10.0509],[43.3909,10.4109],[43.4609,10.3809],[44.0737,10.5983]]]},"properties":{"code":"11101","name":"Baki District","level":"3","parent":"Fcc3l19zidt","parentGraph":"d2FE2xzZNoV/Fcc3l19zidt","groups":[]}},{"type":"Feature","id":"nXCOVZj7UNh","geometry":{"type":"Point","coordinates":[43.96117,9.265266]},"properties":{"code":"11203","name":"Baligubadle District","level":"3","parent":"VGHHI9yn8J4","parentGraph":"d2FE2xzZNoV/VGHHI9yn8J4","groups":[]}},{"type":"Feature","id":"eQ2s05opSBi","geometry":{"type":"Polygon","coordinates":[[[44.2373,10.4743],[44.2891,10.4323],[44.3675,10.4022],[44.4114,10.3927],[44.4486,10.4019],[44.4825,10.3999],[44.5655,10.3805],[44.6166,10.383],[44.6597,10.4024],[44.7267,10.4185],[44.8285,10.4186],[44.8816,10.4072],[44.9445,10.4117],[44.9966,10.4344],[45.0062,10.4587],[45.0488,10.4759],[45.0889,10.5094],[45.1304,10.5165],[45.2342,10.5629],[45.3254,10.661],[45.4616,10.6648],[45.481,10.6846],[45.5153,10.6922],[45.573,10.7271],[45.5982,10.7658],[45.6191,10.7663],[45.6825,10.7934],[45.7165,10.818],[45.7566,10.8312],[45.7813,10.8616],[45.8112,10.8682],[45.8415,10.8463],[45.913,10.8224],[45.9756,10.782],[46.0314,10.7742],[46.011,10.0809],[45.9075,10.0997],[45.901,10.1009],[45.101,10.1709],[44.8977,9.9411],[44.731,9.9509],[44.231,10.2809],[44.151,10.3209],[44.2373,10.4743]]]},"properties":{"code":"11301","name":"Berbera District","level":"3","parent":"yGeM3mt29pH","parentGraph":"d2FE2xzZNoV/yGeM3mt29pH","groups":[]}},{"type":"Feature","id":"p9atRgG83TY","geometry":{"type":"Polygon","coordinates":[[[43.3909,10.4109],[43.3509,10.0509],[43.3309,9.841],[43.3709,9.801],[43.2905,9.6585],[43.2578,9.8436],[43.1508,9.9004],[43.1163,9.8897],[43.0868,9.9098],[43.0183,10.0817],[42.8821,10.208],[42.8336,10.2788],[42.8184,10.319],[42.8609,10.3509],[43.2209,10.5009],[43.3709,10.5309],[43.3909,10.4109]]]},"properties":{"code":"11102","name":"Borama District","level":"3","parent":"Fcc3l19zidt","parentGraph":"d2FE2xzZNoV/Fcc3l19zidt","groups":[]}},{"type":"Feature","id":"JzLnjg4lHct","geometry":{"type":"Polygon","coordinates":[[[46.921,8.7826],[46.921,8.761],[47.001,8.751],[47.101,8.5611],[47.0128,8.0011],[46.9907,8.0042],[46.7495,8.0868],[46.5801,8.1472],[46.251,8.2567],[46.251,8.2711],[46.191,8.821],[46.921,8.7826]]]},"properties":{"code":"11601","name":"Buhodle District","level":"3","parent":"pB5bFWYLMzW","parentGraph":"d2FE2xzZNoV/pB5bFWYLMzW","groups":[]}},{"type":"Feature","id":"bPf2xcTaZTM","geometry":{"type":"Polygon","coordinates":[[[46.011,10.0809],[46.0494,10.0504],[46.151,9.441],[46.221,9.001],[46.191,8.821],[46.251,8.2711],[46.251,8.2567],[45.9279,8.3611],[45.8299,8.3964],[45.5301,8.4957],[45.4826,8.5091],[45.291,8.5726],[45.281,9.411],[45.281,9.871],[45.851,9.781],[45.801,9.9209],[45.831,10.0309],[45.9075,10.0997],[46.011,10.0809]]]},"properties":{"code":"11602","name":"Buroa District","level":"3","parent":"pB5bFWYLMzW","parentGraph":"d2FE2xzZNoV/pB5bFWYLMzW","groups":[]}},{"type":"Feature","id":"Gwg3mYw124P","geometry":{"type":"Polygon","coordinates":[[[46.0314,10.7742],[46.0979,10.7633],[46.207,10.7816],[46.2372,10.7813],[46.293,10.7479],[46.3457,10.6906],[46.3991,10.6824],[46.4507,10.6816],[46.5198,10.7113],[46.5894,10.7283],[46.6113,10.7281],[46.6678,10.7459],[46.7179,10.7777],[46.7721,10.7986],[46.7876,10.8109],[46.801,10.7909],[46.941,10.6309],[47.011,10.5609],[47.381,10.1709],[47.361,9.9109],[47.1009,9.4428],[46.911,9.431],[46.841,9.421],[46.5941,9.6173],[46.3139,9.8401],[46.0494,10.0504],[46.011,10.0809],[46.0314,10.7742]]]},"properties":{"code":"11402","name":"El-Afweyn District","level":"3","parent":"JF9IIRF7Qzx","parentGraph":"d2FE2xzZNoV/JF9IIRF7Qzx","groups":[]}},{"type":"Feature","id":"PikgaEpuBZq","geometry":{"type":"Polygon","coordinates":[[[46.7876,10.8109],[46.8715,10.8593],[46.9019,10.8929],[46.9387,10.9149],[46.9858,10.9275],[47.0183,10.9615],[47.0513,10.9643],[47.1085,10.9934],[47.1137,11.015],[47.1432,11.0419],[47.1514,11.0633],[47.219,11.0871],[47.2574,11.1152],[47.3351,11.1459],[47.4231,11.1762],[47.4467,11.1736],[47.5074,11.1819],[47.5585,11.1703],[47.5779,11.1513],[47.6754,11.0911],[47.7215,11.0955],[47.8033,11.1229],[47.8653,11.1111],[47.9098,11.121],[47.981,11.0408],[48.381,10.7209],[48.431,10.6509],[48.481,10.6209],[48.581,10.5309],[48.611,10.5209],[48.5795,9.5421],[48.0795,9.5025],[47.4919,9.4665],[47.1009,9.4428],[47.361,9.9109],[47.381,10.1709],[47.011,10.5609],[46.941,10.6309],[46.801,10.7909],[46.7876,10.8109]]]},"properties":{"code":"11403","name":"Erigavo District","level":"3","parent":"JF9IIRF7Qzx","parentGraph":"d2FE2xzZNoV/JF9IIRF7Qzx","groups":[]}},{"type":"Feature","id":"VLjaglC6tdf","geometry":{"type":"Polygon","coordinates":[[[44.041,10.1709],[44.101,10.1309],[43.931,9.861],[43.5709,9.391],[43.5564,9.3765],[43.4923,9.4025],[43.4465,9.4459],[43.3992,9.5538],[43.3416,9.6013],[43.3001,9.6121],[43.2905,9.6585],[43.3709,9.801],[43.5309,9.9909],[43.721,10.2609],[43.7609,10.3009],[43.8209,10.2909],[44.041,10.1709]]]},"properties":{"code":"11201","name":"Gabiley District","level":"3","parent":"VGHHI9yn8J4","parentGraph":"d2FE2xzZNoV/VGHHI9yn8J4","groups":[]}},{"type":"Feature","id":"s2bOrqHef6N","geometry":{"type":"Polygon","coordinates":[[[44.151,10.3209],[44.231,10.2809],[44.731,9.9509],[44.8977,9.9411],[44.831,9.861],[44.691,9.311],[44.691,8.7731],[44.2717,8.9125],[44.1806,8.9393],[44.0068,8.9976],[43.8983,9.1015],[43.8728,9.1312],[43.6476,9.3593],[43.6025,9.36],[43.5564,9.3765],[43.5709,9.391],[43.931,9.861],[44.101,10.1309],[44.041,10.1709],[44.151,10.3209]]]},"properties":{"code":"11202","name":"Hargeisa District","level":"3","parent":"VGHHI9yn8J4","parentGraph":"d2FE2xzZNoV/VGHHI9yn8J4","groups":[]}},{"type":"Feature","id":"LznCQ57ZL6n","geometry":{"type":"Polygon","coordinates":[[[48.0795,9.5025],[48.041,8.781],[46.9206,8.8433],[46.911,9.431],[47.1009,9.4428],[47.4919,9.4665],[48.0795,9.5025]]]},"properties":{"code":"11502","name":"Hudun District","level":"3","parent":"CubyBZrSky9","parentGraph":"d2FE2xzZNoV/CubyBZrSky9","groups":[]}},{"type":"Feature","id":"AHQbdsuHXKn","geometry":{"type":"Polygon","coordinates":[[[46.9206,8.8433],[48.041,8.781],[48.561,8.781],[48.051,8.2411],[48.131,8.2111],[47.921,8.0011],[47.501,8.0011],[47.0128,8.0011],[47.101,8.5611],[47.001,8.751],[46.921,8.761],[46.921,8.7826],[46.9206,8.8433]]]},"properties":{"code":"11503","name":"Laasaanod District","level":"3","parent":"CubyBZrSky9","parentGraph":"d2FE2xzZNoV/CubyBZrSky9","groups":[]}},{"type":"Feature","id":"JFaLllv0mkY","geometry":{"type":"Polygon","coordinates":[[[43.6991,10.9357],[43.7901,10.8363],[43.858,10.7683],[43.9577,10.6822],[43.996,10.663],[44.0737,10.5983],[43.4609,10.3809],[43.3909,10.4109],[43.3709,10.5309],[43.2209,10.5009],[43.1309,10.6909],[43.6991,10.9357]]]},"properties":{"code":"11103","name":"Lughaya District","level":"3","parent":"Fcc3l19zidt","parentGraph":"d2FE2xzZNoV/Fcc3l19zidt","groups":[]}},{"type":"Feature","id":"VGHHI9yn8J4","geometry":{"type":"Polygon","coordinates":[[[44.15,10.32],[44.23,10.28],[44.73,9.95],[44.8967,9.9402],[44.83,9.86],[44.69,9.31],[44.69,8.7721],[44.4444,8.8533],[44.2707,8.9115],[44.1796,8.9383],[44.0059,8.9966],[43.8973,9.1004],[43.8719,9.1302],[43.6467,9.3583],[43.6015,9.359],[43.5349,9.3811],[43.4914,9.4015],[43.4455,9.4449],[43.3982,9.5528],[43.3406,9.6003],[43.2992,9.6111],[43.2896,9.6575],[43.31,9.69],[43.37,9.8],[43.53,9.99],[43.72,10.26],[43.76,10.3],[43.82,10.29],[44.04,10.17],[44.15,10.32]]]},"properties":{"code":"11200","name":"Marodi-Jeh Region","level":"2","parent":"d2FE2xzZNoV","parentGraph":"d2FE2xzZNoV","groups":[]}},{"type":"Feature","id":"uCr9Hbxewkv","geometry":{"type":"Polygon","coordinates":[[[45.281,9.871],[45.281,9.411],[45.291,8.5726],[44.8679,8.7118],[44.691,8.7731],[44.691,9.311],[44.831,9.861],[44.8977,9.9411],[45.281,9.871]]]},"properties":{"code":"11603","name":"Odweine District","level":"3","parent":"pB5bFWYLMzW","parentGraph":"d2FE2xzZNoV/pB5bFWYLMzW","groups":[]}},{"type":"Feature","id":"yGeM3mt29pH","geometry":{"type":"Polygon","coordinates":[[[46.0304,10.7733],[46.01,10.08],[45.9065,10.0988],[45.83,10.03],[45.8,9.92],[45.85,9.78],[45.28,9.87],[44.8967,9.9402],[44.73,9.95],[44.23,10.28],[44.15,10.32],[44.2363,10.4734],[44.2882,10.4314],[44.3666,10.4013],[44.4104,10.3918],[44.4476,10.401],[44.4816,10.399],[44.5646,10.3796],[44.6156,10.3821],[44.6587,10.4015],[44.7258,10.4176],[44.8275,10.4177],[44.8806,10.4063],[44.9435,10.4108],[44.9956,10.4335],[45.0052,10.4578],[45.0479,10.475],[45.088,10.5085],[45.1294,10.5156],[45.2332,10.562],[45.3245,10.6601],[45.4606,10.6639],[45.4801,10.6838],[45.5144,10.6914],[45.5329,10.7084],[45.572,10.7262],[45.5972,10.7649],[45.6181,10.7654],[45.6815,10.7925],[45.7155,10.8171],[45.7556,10.8303],[45.7803,10.8607],[45.8102,10.8673],[45.8405,10.8454],[45.912,10.8215],[45.9746,10.7812],[46.0304,10.7733]]]},"properties":{"code":"11300","name":"Sahil Region","level":"2","parent":"d2FE2xzZNoV","parentGraph":"d2FE2xzZNoV","groups":[]}},{"type":"Feature","id":"JF9IIRF7Qzx","geometry":{"type":"Polygon","coordinates":[[[46.0484,10.0494],[46.01,10.08],[46.0304,10.7733],[46.0969,10.7624],[46.206,10.7807],[46.2362,10.7804],[46.292,10.747],[46.3205,10.7106],[46.3447,10.6897],[46.398,10.6815],[46.4497,10.6807],[46.5188,10.7104],[46.5884,10.7275],[46.6102,10.7272],[46.6668,10.745],[46.7169,10.7768],[46.7711,10.7978],[46.781,10.8077],[46.8705,10.8585],[46.9009,10.8921],[46.9213,10.8955],[46.9377,10.914],[46.9848,10.9266],[47.0173,10.9607],[47.0503,10.9635],[47.1075,10.9925],[47.1127,11.0141],[47.1422,11.041],[47.1504,11.0625],[47.2179,11.0863],[47.2563,11.1144],[47.2761,11.1184],[47.3341,11.1451],[47.4221,11.1754],[47.4456,11.1728],[47.5063,11.1811],[47.5574,11.1694],[47.5769,11.1505],[47.6744,11.0902],[47.7205,11.0947],[47.8022,11.122],[47.8642,11.1102],[47.9135,11.1218],[47.9718,11.1124],[48.0246,11.115],[48.0927,11.1287],[48.1077,11.1239],[48.1535,11.1292],[48.1853,11.1525],[48.208,11.1786],[48.2416,11.2045],[48.2882,11.2134],[48.3172,11.2301],[48.3601,11.2698],[48.4041,11.2808],[48.4621,11.2803],[48.5174,11.3058],[48.5433,11.3105],[48.6041,11.307],[48.662,11.3225],[48.7019,11.3075],[48.7737,11.2907],[48.8796,11.2465],[48.9178,11.239],[49.03,10.78],[49.04,10.35],[49.06,9.57],[48.56,9.54],[48.06,9.5],[47.4909,9.4655],[47.0999,9.4418],[46.91,9.43],[46.84,9.42],[46.5305,9.6661],[46.2573,9.8833],[46.0484,10.0494]]]},"properties":{"code":"11400","name":"Sanag Region","level":"2","parent":"d2FE2xzZNoV","parentGraph":"d2FE2xzZNoV","groups":[]}},{"type":"Feature","id":"OOhgRcBhYLX","geometry":{"type":"Polygon","coordinates":[[[45.9075,10.0997],[45.831,10.0309],[45.801,9.9209],[45.851,9.781],[45.281,9.871],[44.8977,9.9411],[45.101,10.1709],[45.901,10.1009],[45.9075,10.0997]]]},"properties":{"code":"11302","name":"Sheikh District","level":"3","parent":"yGeM3mt29pH","parentGraph":"d2FE2xzZNoV/yGeM3mt29pH","groups":[]}},{"type":"Feature","id":"CubyBZrSky9","geometry":{"type":"Polygon","coordinates":[[[49.06,9.57],[49.0801,9.1395],[48.73,8.78],[48.56,8.78],[48.05,8.24],[48.13,8.21],[47.92,8],[47.6,8],[47.4,8],[47.0118,8],[47.1,8.56],[47,8.75],[46.92,8.76],[46.92,8.7816],[46.19,8.82],[46.22,9],[46.15,9.44],[46.0484,10.0494],[46.2573,9.8833],[46.5305,9.6661],[46.84,9.42],[46.91,9.43],[47.0999,9.4418],[47.4909,9.4655],[48.06,9.5],[48.56,9.54],[49.06,9.57]]]},"properties":{"code":"11500","name":"Sool Region","level":"2","parent":"d2FE2xzZNoV","parentGraph":"d2FE2xzZNoV","groups":[]}},{"type":"Feature","id":"wkCm09PNOnA","geometry":{"type":"Polygon","coordinates":[[[49.0611,9.571],[49.0811,9.1405],[48.731,8.781],[48.561,8.781],[48.041,8.781],[48.0795,9.5025],[48.5795,9.5421],[49.0611,9.571]]]},"properties":{"code":"11504","name":"Taleeh District","level":"3","parent":"CubyBZrSky9","parentGraph":"d2FE2xzZNoV/CubyBZrSky9","groups":[]}},{"type":"Feature","id":"pB5bFWYLMzW","geometry":{"type":"Polygon","coordinates":[[[46.01,10.08],[46.0484,10.0494],[46.15,9.44],[46.22,9],[46.19,8.82],[46.92,8.7816],[46.92,8.76],[47,8.75],[47.1,8.56],[47.0118,8],[46.9897,8.0031],[46.7485,8.0857],[46.5791,8.1461],[46.3463,8.2224],[46.2394,8.2593],[45.9269,8.3601],[45.8289,8.3953],[45.5291,8.4947],[45.4817,8.508],[45.1011,8.634],[44.8669,8.7107],[44.69,8.7721],[44.69,9.31],[44.83,9.86],[44.8967,9.9402],[45.28,9.87],[45.85,9.78],[45.8,9.92],[45.83,10.03],[45.9065,10.0988],[46.01,10.08]]]},"properties":{"code":"11600","name":"Togdher Region","level":"2","parent":"d2FE2xzZNoV","parentGraph":"d2FE2xzZNoV","groups":[]}},{"type":"Feature","id":"AwT1KAKN6pX","geometry":{"type":"Polygon","coordinates":[[[43.6991,10.9357],[43.1309,10.6909],[43.2209,10.5009],[42.8609,10.3509],[42.8184,10.319],[42.7928,10.405],[42.764,10.4576],[42.7476,10.5132],[42.6993,10.5471],[42.6841,10.5934],[42.6939,10.6261],[42.7235,10.6521],[42.7675,10.7229],[42.9868,11.0228],[43.0009,11.0558],[43.2556,11.4704],[43.3161,11.4658],[43.3321,11.4271],[43.3919,11.3806],[43.4285,11.3798],[43.4804,11.3298],[43.4943,11.2911],[43.497,11.2444],[43.5171,11.2005],[43.5569,11.1797],[43.566,11.148],[43.5995,11.0832],[43.6267,11.0458],[43.6754,10.9654],[43.6991,10.9357]]]},"properties":{"code":"11104","name":"Zeila District","level":"3","parent":"Fcc3l19zidt","parentGraph":"d2FE2xzZNoV/Fcc3l19zidt","groups":[]}}]}
